[{"OBJECT_NAME":"TIANQI-34","OBJECT_ID":"2024-245B","EPOCH":"2026-03-09T23:15:23.393664","MEAN_MOTION":13.99150142,"ECCENTRICITY":0.00063477,"INCLINATION":44.9809,"RA_OF_ASC_NODE":43.206,"ARG_OF_PERICENTER":277.4592,"MEAN_ANOMALY":82.5519,"EPHEMERIS_TYPE":0,"CLASSIFICATION_TYPE":"U","NORAD_CAT_ID":62366,"ELEMENT_SET_NO":999,"REV_AT_EPOCH":6243,"BSTAR":0.0001456887,"MEAN_MOTION_DOT":8.4e-7,"MEAN_MOTION_DDOT":0},{"OBJECT_NAME":"CZ-6A DEB","OBJECT_ID":"2022-151SY","EPOCH":"2026-03-09T22:15:28.960128","MEAN_MOTION":14.06464096,"ECCENTRICITY":0.00731906,"INCLINATION":98.8604,"RA_OF_ASC_NODE":60.0817,"ARG_OF_PERICENTER":295.5062,"MEAN_ANOMALY":63.855,"EPHEMERIS_TYPE":0,"CLASSIFICATION_TYPE":"U","NORAD_CAT_ID":54959,"ELEMENT_SET_NO":999,"REV_AT_EPOCH":17016,"BSTAR":0.00071565107,"MEAN_MOTION_DOT":1.168e-5,"MEAN_MOTION_DDOT":0}]
